$$SOE
2459580.500000000, A.D. 2022-Jan-01 00:00:00.0000, 4.208148137665619E+08, 4.881781886964931E+07, -9.705179855319081E+07,
2459587.500000000, A.D. 2022-Jan-08 00:00:00.0000, 4.198834600076262E+08, 5.938321505339425E+07, -1.000828668819153E+08,
2459594.500000000, A.D. 2022-Jan-15 00:00:00.0000, 4.187057870410460E+08, 6.991359780645625E+07, -1.030551547994266E+08,
2459601.500000000, A.D. 2022-Jan-22 00:00:00.0000, 4.172843721600192E+08, 8.040310574167436E+07, -1.059673826503279E+08,
2459608.500000000, A.D. 2022-Jan-29 00:00:00.0000, 4.156219363267952E+08, 9.084600078045830E+07, -1.088183354569745E+08,
2459615.500000000, A.D. 2022-Feb-05 00:00:00.0000, 4.137213348777050E+08, 1.012366707151994E+08, -1.116068623650068E+08,
2459622.500000000, A.D. 2022-Feb-12 00:00:00.0000, 4.115855504297874E+08, 1.115696303268238E+08, -1.143318762657048E+08,
2459629.500000000, A.D. 2022-Feb-19 00:00:00.0000, 4.092176866829256E+08, 1.218395234371166E+08, -1.169923532866647E+08,
2459636.500000000, A.D. 2022-Feb-26 00:00:00.0000, 4.066209618250422E+08, 1.320411251849903E+08, -1.195873320968884E+08,
2459643.500000000, A.D. 2022-Mar-05 00:00:00.0000, 4.037987017175473E+08, 1.421693439224159E+08, -1.221159130988642E+08,
2459650.500000000, A.D. 2022-Mar-12 00:00:00.0000, 4.007543330991440E+08, 1.522192226774781E+08, -1.245772575408218E+08,
2459657.500000000, A.D. 2022-Mar-19 00:00:00.0000, 3.974913768937713E+08, 1.621859402264258E+08, -1.269705865607181E+08,
2459664.500000000, A.D. 2022-Mar-26 00:00:00.0000, 3.940134416583869E+08, 1.720648117831760E+08, -1.292951801716845E+08,
2459671.500000000, A.D. 2022-Apr-02 00:00:00.0000, 3.903242172504675E+08, 1.818512892652723E+08, -1.315503762068271E+08,
2459678.500000000, A.D. 2022-Apr-09 00:00:00.0000, 3.864274689982320E+08, 1.915409611559134E+08, -1.337355692549368E+08,
2459685.500000000, A.D. 2022-Apr-16 00:00:00.0000, 3.823270327397329E+08, 2.011295526301381E+08, -1.358502095727347E+08,
2459692.500000000, A.D. 2022-Apr-23 00:00:00.0000, 3.780268094679953E+08, 2.106129270439920E+08, -1.378938017737552E+08,
2459699.500000000, A.D. 2022-Apr-30 00:00:00.0000, 3.735307577185311E+08, 2.199870865585039E+08, -1.398659033117862E+08,
2459706.500000000, A.D. 2022-May-07 00:00:00.0000, 3.688428867699829E+08, 2.292481699403897E+08, -1.417661232081694E+08,
2459713.500000000, A.D. 2022-May-14 00:00:00.0000, 3.639672520517603E+08, 2.383924505907018E+08, -1.435941209072964E+08,
2459720.500000000, A.D. 2022-May-21 00:00:00.0000, 3.589079507298148E+08, 2.474163355742149E+08, -1.453496050163351E+08,
2459727.500000000, A.D. 2022-May-28 00:00:00.0000, 3.536691169940122E+08, 2.563163647053374E+08, -1.470323319683143E+08,
2459734.500000000, A.D. 2022-Jun-04 00:00:00.0000, 3.482549173260257E+08, 2.650892093918227E+08, -1.486421046642091E+08,
2459741.500000000, A.D. 2022-Jun-11 00:00:00.0000, 3.426695458934571E+08, 2.737316712520562E+08, -1.501787711115005E+08,
2459748.500000000, A.D. 2022-Jun-18 00:00:00.0000, 3.369172201091834E+08, 2.822406805323212E+08, -1.516422230657747E+08,
2459755.500000000, A.D. 2022-Jun-25 00:00:00.0000, 3.310021763850375E+08, 2.906132943034146E+08, -1.530323946845568E+08,
2459762.500000000, A.D. 2022-Jul-02 00:00:00.0000, 3.249286662129853E+08, 2.988466943827488E+08, -1.543492612144801E+08,
2459769.500000000, A.D. 2022-Jul-09 00:00:00.0000, 3.187009529627016E+08, 3.069381851697700E+08, -1.555928377360862E+08,
2459776.500000000, A.D. 2022-Jul-16 00:00:00.0000, 3.123233093377991E+08, 3.148851924866750E+08, -1.567631778745160E+08,
2459783.500000000, A.D. 2022-Jul-23 00:00:00.0000, 3.058000132870471E+08, 3.226852635110678E+08, -1.578603722683443E+08,
2459790.500000000, A.D. 2022-Jul-30 00:00:00.0000, 2.991353424494179E+08, 3.303360644585280E+08, -1.588845470799181E+08,
2459797.500000000, A.D. 2022-Aug-06 00:00:00.0000, 2.923335707290906E+08, 3.378353766746551E+08, -1.598358628276539E+08,
2459804.500000000, A.D. 2022-Aug-13 00:00:00.0000, 2.853989661737270E+08, 3.451810938998941E+08, -1.607145132418542E+08,
2459811.500000000, A.D. 2022-Aug-20 00:00:00.0000, 2.783357885824328E+08, 3.523712202124224E+08, -1.615207240430255E+08,
2459818.500000000, A.D. 2022-Aug-27 00:00:00.0000, 2.711482869076995E+08, 3.594038679307463E+08, -1.622547517102271E+08,
2459825.500000000, A.D. 2022-Sep-03 00:00:00.0000, 2.638406966952638E+08, 3.662772553726808E+08, -1.629168822727253E+08,
2459832.500000000, A.D. 2022-Sep-10 00:00:00.0000, 2.564172376474827E+08, 3.729897045010964E+08, -1.635074301322725E+08,
2459839.500000000, A.D. 2022-Sep-17 00:00:00.0000, 2.488821113346846E+08, 3.795396384607238E+08, -1.640267369195822E+08,
2459846.500000000, A.D. 2022-Sep-24 00:00:00.0000, 2.412394991097028E+08, 3.859255789608914E+08, -1.644751703953416E+08,
2459853.500000000, A.D. 2022-Oct-01 00:00:00.0000, 2.334935604603169E+08, 3.921461434875200E+08, -1.648531234203572E+08,
2459860.500000000, A.D. 2022-Oct-08 00:00:00.0000, 2.256484322020172E+08, 3.982000428717593E+08, -1.651610129905204E+08,
2459867.500000000, A.D. 2022-Oct-15 00:00:00.0000, 2.177082275746195E+08, 4.040860804183965E+08, -1.653992791536551E+08,
2459874.500000000, A.D. 2022-Oct-22 00:00:00.0000, 2.096770330550480E+08, 4.098031509132222E+08, -1.655683837451594E+08,
2459881.500000000, A.D. 2022-Oct-29 00:00:00.0000, 2.015589053780001E+08, 4.153502369210780E+08, -1.656688093841644E+08,
2459888.500000000, A.D. 2022-Nov-05 00:00:00.0000, 1.933578708600344E+08, 4.207264051203297E+08, -1.657010587003097E+08,
2459895.500000000, A.D. 2022-Nov-12 00:00:00.0000, 1.850779250579654E+08, 4.259308039432666E+08, -1.656656535073277E+08,
2459902.500000000, A.D. 2022-Nov-19 00:00:00.0000, 1.767230320370102E+08, 4.309626615705462E+08, -1.655631339349417E+08,
2459909.500000000, A.D. 2022-Nov-26 00:00:00.0000, 1.682971235059009E+08, 4.358212838847716E+08, -1.653940575752930E+08,
2459916.500000000, A.D. 2022-Dec-03 00:00:00.0000, 1.598040979801537E+08, 4.405060523738335E+08, -1.651589986597117E+08,
2459923.500000000, A.D. 2022-Dec-10 00:00:00.0000, 1.512478200141945E+08, 4.450164220046018E+08, -1.648585472680155E+08,
2459930.500000000, A.D. 2022-Dec-17 00:00:00.0000, 1.426321195222208E+08, 4.493519190437127E+08, -1.644933085741614E+08,
2459937.500000000, A.D. 2022-Dec-24 00:00:00.0000, 1.339607912923970E+08, 4.535121387613049E+08, -1.640639021432588E+08,
2459944.500000000, A.D. 2022-Dec-31 00:00:00.0000, 1.252375950474202E+08, 4.574967431270410E+08, -1.635709613037910E+08,
2459951.500000000, A.D. 2023-Jan-07 00:00:00.0000, 1.164662561702310E+08, 4.613054594626440E+08, -1.630151325277995E+08,
2459958.500000000, A.D. 2023-Jan-14 00:00:00.0000, 1.076504651246260E+08, 4.649380805484563E+08, -1.623970745976494E+08,
2459965.500000000, A.D. 2023-Jan-21 00:00:00.0000, 9.879387492165834E+07, 4.683944630111195E+08, -1.617174577581329E+08,
2459972.500000000, A.D. 2023-Jan-28 00:00:00.0000, 8.990010029514091E+07, 4.716745237986227E+08, -1.609769632061931E+08,
2459979.500000000, A.D. 2023-Feb-04 00:00:00.0000, 8.097271837504269E+07, 4.747782377721094E+08, -1.601762826521411E+08,
2459986.500000000, A.D. 2023-Feb-11 00:00:00.0000, 7.201526906081329E+07, 4.777056362208124E+08, -1.593161178027493E+08,
2459993.500000000, A.D. 2023-Feb-18 00:00:00.0000, 6.303125502807876E+07, 4.804568054769579E+08, -1.583971798267435E+08,
2460000.500000000, A.D. 2023-Feb-25 00:00:00.0000, 5.402414162842897E+07, 4.830318854691719E+08, -1.574201888392830E+08,
2460007.500000000, A.D. 2023-Mar-04 00:00:00.0000, 4.499735678180644E+07, 4.854310682334586E+08, -1.563858734125513E+08,
2460014.500000000, A.D. 2023-Mar-11 00:00:00.0000, 3.595429088773682E+07, 4.876545963822171E+08, -1.552949701141474E+08,
2460021.500000000, A.D. 2023-Mar-18 00:00:00.0000, 2.689829680019908E+07, 4.897027614813830E+08, -1.541482230804877E+08,
2460028.500000000, A.D. 2023-Mar-25 00:00:00.0000, 1.783269006700573E+07, 4.915759022877234E+08, -1.529463836463332E+08,
2460035.500000000, A.D. 2023-Apr-01 00:00:00.0000, 8.760749855362166E+06, 4.932744032390206E+08, -1.516902100359287E+08,
2460042.500000000, A.D. 2023-Apr-08 00:00:00.0000, -3.142800545980391E+05, 4.947986944220054E+08, -1.503804669583998E+08,
2460049.500000000, A.D. 2023-Apr-15 00:00:00.0000, -9.389192547538554E+06, 4.961492519112493E+08, -1.490179249825613E+08,
2460056.500000000, A.D. 2023-Apr-22 00:00:00.0000, -1.846081891586327E+07, 4.973265954260042E+08, -1.476033601053244E+08,
2460063.500000000, A.D. 2023-Apr-29 00:00:00.0000, -2.752602833604174E+07, 4.983312855588956E+08, -1.461375535807840E+08,
2460070.500000000, A.D. 2023-May-06 00:00:00.0000, -3.658172683969813E+07, 4.991639223586522E+08, -1.446212917035396E+08,
2460077.500000000, A.D. 2023-May-13 00:00:00.0000, -4.562485675716662E+07, 4.998251443727251E+08, -1.430553655292237E+08,
2460084.500000000, A.D. 2023-May-20 00:00:00.0000, -5.465239640084286E+07, 5.003156276577581E+08, -1.414405705931942E+08,
2460091.500000000, A.D. 2023-May-27 00:00:00.0000, -6.366135979647325E+07, 5.006360847275956E+08, -1.397777066470173E+08,
2460098.500000000, A.D. 2023-Jun-03 00:00:00.0000, -7.264879640642087E+07, 5.007872634639620E+08, -1.380675774154621E+08,
2460105.500000000, A.D. 2023-Jun-10 00:00:00.0000, -8.161179082272248E+07, 5.007699459751884E+08, -1.363109903769284E+08,
2460112.500000000, A.D. 2023-Jun-17 00:00:00.0000, -9.054746234246162E+07, 5.005849473420150E+08, -1.345087565800226E+08,
2460119.500000000, A.D. 2023-Jun-24 00:00:00.0000, -9.945296410705720E+07, 5.002331143052654E+08, -1.326616905207613E+08,
2460126.500000000, A.D. 2023-Jul-01 00:00:00.0000, -1.083254815539656E+08, 4.997153247229733E+08, -1.307706100357850E+08,
2460133.500000000, A.D. 2023-Jul-08 00:00:00.0000, -1.171622318559372E+08, 4.990324886189190E+08, -1.288363359908985E+08,
2460140.500000000, A.D. 2023-Jul-15 00:00:00.0000, -1.259604656248799E+08, 4.981855479916359E+08, -1.268596918784679E+08,
2460147.500000000, A.D. 2023-Jul-22 00:00:00.0000, -1.347174673604456E+08, 4.971754743474538E+08, -1.248415037301079E+08,
$$EOE